[{"OBJECT_NAME":"STARLINK-30385","OBJECT_ID":"2023-134H","EPOCH":"2026-03-09T22:00:01.999584","MEAN_MOTION":15.26742609,"ECCENTRICITY":0.00013436,"INCLINATION":43,"RA_OF_ASC_NODE":181.6427,"ARG_OF_PERICENTER":270.2641,"MEAN_ANOMALY":188.4405,"EPHEMERIS_TYPE":0,"CLASSIFICATION_TYPE":"U","NORAD_CAT_ID":57778,"ELEMENT_SET_NO":999,"REV_AT_EPOCH":562,"BSTAR":0.00022289209,"MEAN_MOTION_DOT":5.724e-5,"MEAN_MOTION_DDOT":0},{"OBJECT_NAME":"TEVEL2-7","OBJECT_ID":"2025-052AE","EPOCH":"2026-03-09T15:52:01.887744","MEAN_MOTION":15.28414096,"ECCENTRICITY":0.00081048,"INCLINATION":97.4054,"RA_OF_ASC_NODE":324.3041,"ARG_OF_PERICENTER":124.683,"MEAN_ANOMALY":235.5175,"EPHEMERIS_TYPE":0,"CLASSIFICATION_TYPE":"U","NORAD_CAT_ID":63238,"ELEMENT_SET_NO":999,"REV_AT_EPOCH":5480,"BSTAR":0.00069668191,"MEAN_MOTION_DOT":0.00019244,"MEAN_MOTION_DDOT":0}]
